start=new Date('2021-12-28T00:00:00.000Z').valueOf();
sats=[{"OBJECT_ID":"2019-074AS","MEAN_MOTION":"15.06400344","OBJECT_NAME":"STARLINK-1048","CENTER_NAME":"EARTH","COUNTRY_CODE":"US","INCLINATION":"53.0512","EPHEMERIS_TYPE":"0","APOAPSIS":"548.748","TLE_LINE1":"1 44753U 19074AS  21361.91446637  .00002148  00000-0  16309-3 0  9994","REV_AT_EPOCH":"11772","RA_OF_ASC_NODE":"227.5196","EPOCH":"2021-12-27T21:56:49.894368","OBJECT_TYPE":"PAYLOAD","PERIAPSIS":"545.677","MEAN_ANOMALY":"286.8557","SEMIMAJOR_AXIS":"6925.348","NORAD_CAT_ID":"44753","ARG_OF_PERICENTER":"73.2675","MEAN_MOTION_DDOT":"0.0000000000000","RCS_SIZE":"LARGE","ECCENTRICITY":"0.00022170","BSTAR":"0.00016309000000","TIME_SYSTEM":"UTC","GP_ID":"192602201","LAUNCH_DATE":"2019-11-11","MEAN_MOTION_DOT":"0.00002148","TLE_LINE2":"2 44753  53.0512 227.5196 0002217  73.2675 286.8557 15.06400344117721","CLASSIFICATION_TYPE":"U","PERIOD":"95.592","ELEMENT_SET_NO":"999","SITE":"AFETR","DECAY_DATE":null,"MEAN_ELEMENT_THEORY":"SGP4","REF_FRAME":"TEME","FILE":"3253114"},{"TLE_LINE1":"1 44754U 19074AT  21361.85180754  .00001357  00000-0  11006-3 0  9993","RA_OF_ASC_NODE":"227.8030","REV_AT_EPOCH":"11771","INCLINATION":"53.0536","CENTER_NAME":"EARTH","COUNTRY_CODE":"US","APOAPSIS":"548.780","EPHEMERIS_TYPE":"0","OBJECT_NAME":"STARLINK-1049","OBJECT_ID":"2019-074AT","MEAN_MOTION":"15.06389444","ECCENTRICITY":"0.00022150","RCS_SIZE":"LARGE","TIME_SYSTEM":"UTC","BSTAR":"0.00011006000000","ARG_OF_PERICENTER":"75.6394","MEAN_MOTION_DDOT":"0.0000000000000","MEAN_ANOMALY":"284.4841","SEMIMAJOR_AXIS":"6925.381","NORAD_CAT_ID":"44754","EPOCH":"2021-12-27T20:26:36.171456","OBJECT_TYPE":"PAYLOAD","PERIAPSIS":"545.712","PERIOD":"95.593","CLASSIFICATION_TYPE":"U","SITE":"AFETR","ELEMENT_SET_NO":"999","MEAN_MOTION_DOT":"0.00001357","TLE_LINE2":"2 44754  53.0536 227.8030 0002215  75.6394 284.4841 15.06389444117716","LAUNCH_DATE":"2019-11-11","GP_ID":"192602949","REF_FRAME":"TEME","DECAY_DATE":null,"MEAN_ELEMENT_THEORY":"SGP4","FILE":"3253114"},{"LAUNCH_DATE":"2019-11-11","GP_ID":"192601205","SITE":"AFETR","ELEMENT_SET_NO":"999","CLASSIFICATION_TYPE":"U","PERIOD":"95.592","TLE_LINE2":"2 44755  53.0500 267.5855 0002063  54.0939 306.0241 15.06402533117711","MEAN_MOTION_DOT":"0.00002257","FILE":"3253114","REF_FRAME":"TEME","DECAY_DATE":null,"MEAN_ELEMENT_THEORY":"SGP4","OBJECT_NAME":"STARLINK-1050","MEAN_MOTION":"15.06402533","OBJECT_ID":"2019-074AU","TLE_LINE1":"1 44755U 19074AU  21361.90245535  .00002257  00000-0  17039-3 0  9991","REV_AT_EPOCH":"11771","RA_OF_ASC_NODE":"267.5855","APOAPSIS":"548.634","EPHEMERIS_TYPE":"0","INCLINATION":"53.0500","CENTER_NAME":"EARTH","COUNTRY_CODE":"US","SEMIMAJOR_AXIS":"6925.341","NORAD_CAT_ID":"44755","MEAN_ANOMALY":"306.0241","PERIAPSIS":"545.777","OBJECT_TYPE":"PAYLOAD","EPOCH":"2021-12-27T21:39:32.142240","TIME_SYSTEM":"UTC","BSTAR":"0.00017039000000","ECCENTRICITY":"0.00020630","RCS_SIZE":"LARGE","MEAN_MOTION_DDOT":"0.0000000000000","ARG_OF_PERICENTER":"54.0939"},{"OBJECT_NAME":"STARLINK-1052","OBJECT_ID":"2019-074AW","MEAN_MOTION":"15.06392480","REV_AT_EPOCH":"11744","TLE_LINE1":"1 44757U 19074AW  21361.91999833  .00002016  00000-0  15425-3 0  9991","RA_OF_ASC_NODE":"247.4867","APOAPSIS":"548.765","EPHEMERIS_TYPE":"0","INCLINATION":"53.0547","CENTER_NAME":"EARTH","COUNTRY_CODE":"US","SEMIMAJOR_AXIS":"6925.372","MEAN_ANOMALY":"290.7333","NORAD_CAT_ID":"44757","PERIAPSIS":"545.708","OBJECT_TYPE":"PAYLOAD","EPOCH":"2021-12-27T22:04:47.855712","TIME_SYSTEM":"UTC","BSTAR":"0.00015425000000","ECCENTRICITY":"0.00022070","RCS_SIZE":"LARGE","MEAN_MOTION_DDOT":"0.0000000000000","ARG_OF_PERICENTER":"69.3893","LAUNCH_DATE":"2019-11-11","GP_ID":"192601453","ELEMENT_SET_NO":"999","SITE":"AFETR","CLASSIFICATION_TYPE":"U","PERIOD":"95.593","TLE_LINE2":"2 44757  53.0547 247.4867 0002207  69.3893 290.7333 15.06392480117442","MEAN_MOTION_DOT":"0.00002016","FILE":"3253114","REF_FRAME":"TEME","DECAY_DATE":null,"MEAN_ELEMENT_THEORY":"SGP4"},{"EPHEMERIS_TYPE":"0","APOAPSIS":"548.556","COUNTRY_CODE":"US","CENTER_NAME":"EARTH","INCLINATION":"53.0548","RA_OF_ASC_NODE":"267.4473","TLE_LINE1":"1 44758U 19074AX  21361.92826349  .00004058  00000-0  29111-3 0  9999","REV_AT_EPOCH":"11717","MEAN_MOTION":"15.06404746","OBJECT_ID":"2019-074AX","OBJECT_NAME":"STARLINK-1053","MEAN_MOTION_DDOT":"0.0000000000000","ARG_OF_PERICENTER":"58.5283","TIME_SYSTEM":"UTC","BSTAR":"0.00029111000000","RCS_SIZE":"LARGE","ECCENTRICITY":"0.00019590","OBJECT_TYPE":"PAYLOAD","PERIAPSIS":"545.842","EPOCH":"2021-12-27T22:16:41.965536","MEAN_ANOMALY":"301.5897","SEMIMAJOR_AXIS":"6925.334","NORAD_CAT_ID":"44758","TLE_LINE2":"2 44758  53.0548 267.4473 0001959  58.5283 301.5897 15.06404746117170","MEAN_MOTION_DOT":"0.00004058","ELEMENT_SET_NO":"999","SITE":"AFETR","CLASSIFICATION_TYPE":"U","PERIOD":"95.592","GP_ID":"192602702","LAUNCH_DATE":"2019-11-11","FILE":"3253114","DECAY_DATE":null,"MEAN_ELEMENT_THEORY":"SGP4","REF_FRAME":"TEME"},{"REF_FRAME":"TEME","DECAY_DATE":null,"MEAN_ELEMENT_THEORY":"SGP4","FILE":"3253114","GP_ID":"192602449","LAUNCH_DATE":"2019-11-11","MEAN_MOTION_DOT":"0.00000254","TLE_LINE2":"2 44759  53.0556 267.5106 0001868  67.2666 292.8520 15.06389586114812","PERIOD":"95.593","CLASSIFICATION_TYPE":"U","SITE":"AFETR","ELEMENT_SET_NO":"999","EPOCH":"2021-12-27T22:02:08.585088","OBJECT_TYPE":"PAYLOAD","PERIAPSIS":"545.952","NORAD_CAT_ID":"44759","SEMIMAJOR_AXIS":"6925.380","MEAN_ANOMALY":"292.8520","ARG_OF_PERICENTER":"67.2666","MEAN_MOTION_DDOT":"0.0000000000000","ECCENTRICITY":"0.00018680","RCS_SIZE":"LARGE","TIME_SYSTEM":"UTC","BSTAR":"0.00003595300000","MEAN_MOTION":"15.06389586","OBJECT_ID":"2019-074AY","OBJECT_NAME":"STARLINK-1054","INCLINATION":"53.0556","CENTER_NAME":"EARTH","COUNTRY_CODE":"US","APOAPSIS":"548.539","EPHEMERIS_TYPE":"0","TLE_LINE1":"1 44759U 19074AY  21361.91815492  .00000254  00000-0  35953-4 0  9992","REV_AT_EPOCH":"11481","RA_OF_ASC_NODE":"267.5106"},{"RCS_SIZE":"LARGE","ECCENTRICITY":"0.00019030","BSTAR":"0.00018961000000","TIME_SYSTEM":"UTC","ARG_OF_PERICENTER":"63.8524","MEAN_MOTION_DDOT":"0.0000000000000","SEMIMAJOR_AXIS":"6925.357","MEAN_ANOMALY":"296.2660","NORAD_CAT_ID":"44760","EPOCH":"2021-12-27T21:40:54.181632","OBJECT_TYPE":"PAYLOAD","PERIAPSIS":"545.904","TLE_LINE1":"1 44760U 19074AZ  21361.90340488  .00002543  00000-0  18961-3 0  9993","RA_OF_ASC_NODE":"267.5583","REV_AT_EPOCH":"11717","COUNTRY_CODE":"US","CENTER_NAME":"EARTH","INCLINATION":"53.0517","EPHEMERIS_TYPE":"0","APOAPSIS":"548.540","OBJECT_NAME":"STARLINK-1055","OBJECT_ID":"2019-074AZ","MEAN_MOTION":"15.06397241","MEAN_ELEMENT_THEORY":"SGP4","DECAY_DATE":null,"REF_FRAME":"TEME","FILE":"3253114","PERIOD":"95.592","CLASSIFICATION_TYPE":"U","SITE":"AFETR","ELEMENT_SET_NO":"999","MEAN_MOTION_DOT":"0.00002543","TLE_LINE2":"2 44760  53.0517 267.5583 0001903  63.8524 296.2660 15.06397241117177","LAUNCH_DATE":"2019-11-11","GP_ID":"192601706"},{"EPOCH":"2021-12-27T21:56:49.469280","PERIAPSIS":"546.014","OBJECT_TYPE":"PAYLOAD","MEAN_ANOMALY":"305.3916","SEMIMAJOR_AXIS":"6925.381","NORAD_CAT_ID":"44761","ARG_OF_PERICENTER":"54.7239","MEAN_MOTION_DDOT":"0.0000000000000","RCS_SIZE":"LARGE","ECCENTRICITY":"0.00017800","TIME_SYSTEM":"UTC","BSTAR":"-0.00020800000000","MEAN_MOTION":"15.06389298","OBJECT_ID":"2019-074BA","OBJECT_NAME":"STARLINK-1056","COUNTRY_CODE":"US","CENTER_NAME":"EARTH","INCLINATION":"53.0533","EPHEMERIS_TYPE":"0","APOAPSIS":"548.479","RA_OF_ASC_NODE":"267.5157","TLE_LINE1":"1 44761U 19074BA  21361.91446145 -.00003378  00000-0 -20800-3 0  9996","REV_AT_EPOCH":"11717","MEAN_ELEMENT_THEORY":"SGP4","DECAY_DATE":null,"REF_FRAME":"TEME","FILE":"3253114","GP_ID":"192601954","LAUNCH_DATE":"2019-11-11","MEAN_MOTION_DOT":"-0.00003378","TLE_LINE2":"2 44761  53.0533 267.5157 0001780  54.7239 305.3916 15.06389298117177","CLASSIFICATION_TYPE":"U","PERIOD":"95.593","ELEMENT_SET_NO":"999","SITE":"AFETR"},{"MEAN_MOTION_DDOT":"0.0000000000000","ARG_OF_PERICENTER":"61.0309","RCS_SIZE":"LARGE","ECCENTRICITY":"0.00022380","BSTAR":"0.00011728000000","TIME_SYSTEM":"UTC","EPOCH":"2021-12-27T21:59:29.666976","OBJECT_TYPE":"PAYLOAD","PERIAPSIS":"545.686","SEMIMAJOR_AXIS":"6925.371","NORAD_CAT_ID":"44762","MEAN_ANOMALY":"299.0904","CENTER_NAME":"EARTH","COUNTRY_CODE":"US","INCLINATION":"53.0523","EPHEMERIS_TYPE":"0","APOAPSIS":"548.786","RA_OF_ASC_NODE":"247.5018","TLE_LINE1":"1 44762U 19074BB  21361.91631559  .00001465  00000-0  11728-3 0  9994","REV_AT_EPOCH":"11744","OBJECT_ID":"2019-074BB","MEAN_MOTION":"15.06392769","OBJECT_NAME":"STARLINK-1057","DECAY_DATE":null,"MEAN_ELEMENT_THEORY":"SGP4","REF_FRAME":"TEME","FILE":"3253114","MEAN_MOTION_DOT":"0.00001465","TLE_LINE2":"2 44762  53.0523 247.5018 0002238  61.0309 299.0904 15.06392769117442","CLASSIFICATION_TYPE":"U","PERIOD":"95.593","ELEMENT_SET_NO":"999","SITE":"AFETR","GP_ID":"192602202","LAUNCH_DATE":"2019-11-11"},{"EPOCH":"2021-12-27T22:28:40.396224","OBJECT_TYPE":"PAYLOAD","PERIAPSIS":"545.873","NORAD_CAT_ID":"44763","SEMIMAJOR_AXIS":"6925.333","MEAN_ANOMALY":"297.8114","ARG_OF_PERICENTER":"62.3069","MEAN_MOTION_DDOT":"0.0000000000000","RCS_SIZE":"LARGE","ECCENTRICITY":"0.00019130","TIME_SYSTEM":"UTC","BSTAR":"0.00028728000000","OBJECT_ID":"2019-074BC","MEAN_MOTION":"15.06405097","OBJECT_NAME":"STARLINK-1058","COUNTRY_CODE":"US","CENTER_NAME":"EARTH","INCLINATION":"53.0546","EPHEMERIS_TYPE":"0","APOAPSIS":"548.523","REV_AT_EPOCH":"11717","TLE_LINE1":"1 44763U 19074BC  21361.93657866  .00004001  00000-0  28728-3 0  9993","RA_OF_ASC_NODE":"267.4248","MEAN_ELEMENT_THEORY":"SGP4","DECAY_DATE":null,"REF_FRAME":"TEME","FILE":"3253114","GP_ID":"192602950","LAUNCH_DATE":"2019-11-11","MEAN_MOTION_DOT":"0.00004001","TLE_LINE2":"2 44763  53.0546 267.4248 0001913  62.3069 297.8114 15.06405097117178","CLASSIFICATION_TYPE":"U","PERIOD":"95.592","SITE":"AFETR","ELEMENT_SET_NO":"999"}];
